[{"OBJECT_NAME":"ONEWEB-0092","OBJECT_ID":"2020-020P","EPOCH":"2025-10-09T03:43:02.642880","MEAN_MOTION":13.11420218,"ECCENTRICITY":0.00017873,"INCLINATION":87.8811,"RA_OF_ASC_NODE":71.0573,"ARG_OF_PERICENTER":87.4005,"MEAN_ANOMALY":272.7328,"EPHEMERIS_TYPE":0,"CLASSIFICATION_TYPE":"U","NORAD_CAT_ID":45437,"ELEMENT_SET_NO":999,"REV_AT_EPOCH":26988,"BSTAR":-0.0003462327,"MEAN_MOTION_DOT":-1.1e-6,"MEAN_MOTION_DDOT":0},{"OBJECT_NAME":"ONEWEB-0085","OBJECT_ID":"2020-020Q","EPOCH":"2025-10-09T02:45:41.174496","MEAN_MOTION":13.11415153,"ECCENTRICITY":0.00016506,"INCLINATION":87.8806,"RA_OF_ASC_NODE":71.0777,"ARG_OF_PERICENTER":93.4444,"MEAN_ANOMALY":266.6872,"EPHEMERIS_TYPE":0,"CLASSIFICATION_TYPE":"U","NORAD_CAT_ID":45438,"ELEMENT_SET_NO":999,"REV_AT_EPOCH":26976,"BSTAR":0.00049579832,"MEAN_MOTION_DOT":1.88e-6,"MEAN_MOTION_DDOT":0},{"OBJECT_NAME":"ONEWEB-0096","OBJECT_ID":"2020-020R","EPOCH":"2025-10-09T02:48:08.086464","MEAN_MOTION":13.11414869,"ECCENTRICITY":0.00014393,"INCLINATION":87.8824,"RA_OF_ASC_NODE":71.0507,"ARG_OF_PERICENTER":95.5882,"MEAN_ANOMALY":264.541,"EPHEMERIS_TYPE":0,"CLASSIFICATION_TYPE":"U","NORAD_CAT_ID":45439,"ELEMENT_SET_NO":999,"REV_AT_EPOCH":26975,"BSTAR":0.0001158857,"MEAN_MOTION_DOT":5.4e-7,"MEAN_MOTION_DDOT":0},{"OBJECT_NAME":"ONEWEB-0037","OBJECT_ID":"2020-020S","EPOCH":"2025-10-09T04:09:54.739008","MEAN_MOTION":13.11418622,"ECCENTRICITY":0.00017048,"INCLINATION":87.8825,"RA_OF_ASC_NODE":71.0052,"ARG_OF_PERICENTER":89.7354,"MEAN_ANOMALY":270.397,"EPHEMERIS_TYPE":0,"CLASSIFICATION_TYPE":"U","NORAD_CAT_ID":45440,"ELEMENT_SET_NO":999,"REV_AT_EPOCH":26979,"BSTAR":0.001423424,"MEAN_MOTION_DOT":5.17e-6,"MEAN_MOTION_DDOT":0},{"OBJECT_NAME":"ONEWEB-0042","OBJECT_ID":"2020-020T","EPOCH":"2025-10-09T04:23:09.494592","MEAN_MOTION":13.11414911,"ECCENTRICITY":0.0001596,"INCLINATION":87.8813,"RA_OF_ASC_NODE":71.0402,"ARG_OF_PERICENTER":89.2919,"MEAN_ANOMALY":270.8391,"EPHEMERIS_TYPE":0,"CLASSIFICATION_TYPE":"U","NORAD_CAT_ID":45441,"ELEMENT_SET_NO":999,"REV_AT_EPOCH":26976,"BSTAR":0.0011911679,"MEAN_MOTION_DOT":4.35e-6,"MEAN_MOTION_DDOT":0},{"OBJECT_NAME":"ONEWEB-0098","OBJECT_ID":"2020-020U","EPOCH":"2025-10-09T04:17:15.461952","MEAN_MOTION":13.11414849,"ECCENTRICITY":0.00017156,"INCLINATION":87.8819,"RA_OF_ASC_NODE":71.0521,"ARG_OF_PERICENTER":96.1491,"MEAN_ANOMALY":263.9833,"EPHEMERIS_TYPE":0,"CLASSIFICATION_TYPE":"U","NORAD_CAT_ID":45442,"ELEMENT_SET_NO":999,"REV_AT_EPOCH":26974,"BSTAR":0.0012273112,"MEAN_MOTION_DOT":4.48e-6,"MEAN_MOTION_DDOT":0},{"OBJECT_NAME":"ONEWEB-0055","OBJECT_ID":"2020-020V","EPOCH":"2025-10-09T03:52:49.969344","MEAN_MOTION":13.11417837,"ECCENTRICITY":0.00016589,"INCLINATION":87.8816,"RA_OF_ASC_NODE":71.0572,"ARG_OF_PERICENTER":93.6492,"MEAN_ANOMALY":266.4826,"EPHEMERIS_TYPE":0,"CLASSIFICATION_TYPE":"U","NORAD_CAT_ID":45443,"ELEMENT_SET_NO":999,"REV_AT_EPOCH":26971,"BSTAR":0.00063111738,"MEAN_MOTION_DOT":2.36e-6,"MEAN_MOTION_DDOT":0},{"OBJECT_NAME":"ONEWEB-0093","OBJECT_ID":"2020-020W","EPOCH":"2025-10-09T03:17:37.295808","MEAN_MOTION":13.11415568,"ECCENTRICITY":0.00013343,"INCLINATION":87.8817,"RA_OF_ASC_NODE":71.0476,"ARG_OF_PERICENTER":82.1195,"MEAN_ANOMALY":278.0085,"EPHEMERIS_TYPE":0,"CLASSIFICATION_TYPE":"U","NORAD_CAT_ID":45444,"ELEMENT_SET_NO":999,"REV_AT_EPOCH":26977,"BSTAR":-0.001429259,"MEAN_MOTION_DOT":-4.94e-6,"MEAN_MOTION_DDOT":0},{"OBJECT_NAME":"ONEWEB-0029","OBJECT_ID":"2020-020X","EPOCH":"2025-10-09T03:40:36.966432","MEAN_MOTION":13.11418462,"ECCENTRICITY":0.00014896,"INCLINATION":87.8819,"RA_OF_ASC_NODE":71.0568,"ARG_OF_PERICENTER":93.5463,"MEAN_ANOMALY":266.5835,"EPHEMERIS_TYPE":0,"CLASSIFICATION_TYPE":"U","NORAD_CAT_ID":45445,"ELEMENT_SET_NO":999,"REV_AT_EPOCH":26975,"BSTAR":-0.00038776367,"MEAN_MOTION_DOT":-1.25e-6,"MEAN_MOTION_DDOT":0},{"OBJECT_NAME":"ONEWEB-0068","OBJECT_ID":"2020-020Y","EPOCH":"2025-10-09T03:17:13.363008","MEAN_MOTION":13.11416173,"ECCENTRICITY":0.00014326,"INCLINATION":87.8815,"RA_OF_ASC_NODE":71.0487,"ARG_OF_PERICENTER":93.3078,"MEAN_ANOMALY":266.8214,"EPHEMERIS_TYPE":0,"CLASSIFICATION_TYPE":"U","NORAD_CAT_ID":45446,"ELEMENT_SET_NO":999,"REV_AT_EPOCH":26969,"BSTAR":-0.0014116567,"MEAN_MOTION_DOT":-4.88e-6,"MEAN_MOTION_DDOT":0},{"OBJECT_NAME":"ONEWEB-0046","OBJECT_ID":"2020-020Z","EPOCH":"2025-10-09T03:05:12.831936","MEAN_MOTION":13.11415271,"ECCENTRICITY":0.00015852,"INCLINATION":87.881,"RA_OF_ASC_NODE":71.0592,"ARG_OF_PERICENTER":84.9395,"MEAN_ANOMALY":275.1914,"EPHEMERIS_TYPE":0,"CLASSIFICATION_TYPE":"U","NORAD_CAT_ID":45447,"ELEMENT_SET_NO":999,"REV_AT_EPOCH":26970,"BSTAR":-0.0011469542,"MEAN_MOTION_DOT":-3.94e-6,"MEAN_MOTION_DDOT":0},{"OBJECT_NAME":"ONEWEB-0063","OBJECT_ID":"2020-020AA","EPOCH":"2025-10-09T03:46:43.743936","MEAN_MOTION":13.11417526,"ECCENTRICITY":0.00017734,"INCLINATION":87.8815,"RA_OF_ASC_NODE":71.0517,"ARG_OF_PERICENTER":87.606,"MEAN_ANOMALY":272.5271,"EPHEMERIS_TYPE":0,"CLASSIFICATION_TYPE":"U","NORAD_CAT_ID":45448,"ELEMENT_SET_NO":999,"REV_AT_EPOCH":26979,"BSTAR":0.00010330137,"MEAN_MOTION_DOT":4.9e-7,"MEAN_MOTION_DDOT":0},{"OBJECT_NAME":"ONEWEB-0019","OBJECT_ID":"2020-020AB","EPOCH":"2025-10-08T19:49:23.827872","MEAN_MOTION":13.11414265,"ECCENTRICITY":0.00016047,"INCLINATION":87.8804,"RA_OF_ASC_NODE":71.1326,"ARG_OF_PERICENTER":97.2858,"MEAN_ANOMALY":262.8452,"EPHEMERIS_TYPE":0,"CLASSIFICATION_TYPE":"U","NORAD_CAT_ID":45449,"ELEMENT_SET_NO":999,"REV_AT_EPOCH":26959,"BSTAR":-0.0015089401,"MEAN_MOTION_DOT":-5.22e-6,"MEAN_MOTION_DDOT":0},{"OBJECT_NAME":"ONEWEB-0094","OBJECT_ID":"2020-020AC","EPOCH":"2025-10-09T07:26:09.236832","MEAN_MOTION":13.17652581,"ECCENTRICITY":0.00015686,"INCLINATION":87.9097,"RA_OF_ASC_NODE":55.7223,"ARG_OF_PERICENTER":97.3592,"MEAN_ANOMALY":262.7718,"EPHEMERIS_TYPE":0,"CLASSIFICATION_TYPE":"U","NORAD_CAT_ID":45450,"ELEMENT_SET_NO":999,"REV_AT_EPOCH":27327,"BSTAR":-4.882568e-6,"MEAN_MOTION_DOT":1.1e-7,"MEAN_MOTION_DDOT":0},{"OBJECT_NAME":"ONEWEB-0087","OBJECT_ID":"2020-020AD","EPOCH":"2025-10-09T04:01:11.221536","MEAN_MOTION":13.11417032,"ECCENTRICITY":0.00012925,"INCLINATION":87.8827,"RA_OF_ASC_NODE":71.0015,"ARG_OF_PERICENTER":93.5478,"MEAN_ANOMALY":266.5798,"EPHEMERIS_TYPE":0,"CLASSIFICATION_TYPE":"U","NORAD_CAT_ID":45451,"ELEMENT_SET_NO":999,"REV_AT_EPOCH":26968,"BSTAR":0.0015034383,"MEAN_MOTION_DOT":5.46e-6,"MEAN_MOTION_DDOT":0},{"OBJECT_NAME":"ONEWEB-0082","OBJECT_ID":"2020-020AE","EPOCH":"2025-10-09T03:56:27.752640","MEAN_MOTION":13.11436197,"ECCENTRICITY":0.00015234,"INCLINATION":87.8822,"RA_OF_ASC_NODE":71.0288,"ARG_OF_PERICENTER":86.9031,"MEAN_ANOMALY":273.2271,"EPHEMERIS_TYPE":0,"CLASSIFICATION_TYPE":"U","NORAD_CAT_ID":45452,"ELEMENT_SET_NO":999,"REV_AT_EPOCH":26977,"BSTAR":-0.00073263128,"MEAN_MOTION_DOT":-2.47e-6,"MEAN_MOTION_DDOT":0},{"OBJECT_NAME":"ONEWEB-0050","OBJECT_ID":"2020-020AF","EPOCH":"2025-10-08T11:07:39.685728","MEAN_MOTION":14.8924299,"ECCENTRICITY":0.00050105,"INCLINATION":88.5716,"RA_OF_ASC_NODE":267.9888,"ARG_OF_PERICENTER":111.24,"MEAN_ANOMALY":248.9364,"EPHEMERIS_TYPE":0,"CLASSIFICATION_TYPE":"U","NORAD_CAT_ID":45453,"ELEMENT_SET_NO":999,"REV_AT_EPOCH":30290,"BSTAR":0.0023626457,"MEAN_MOTION_DOT":0.00022423,"MEAN_MOTION_DDOT":0}]
