ONEWEB-0092             
1 45437U 20020P   25282.15489170 -.00000110  00000+0 -34623-3 0  9995
2 45437  87.8811  71.0573 0001787  87.4005 272.7328 13.11420218269885
ONEWEB-0085             
1 45438U 20020Q   25282.11505989  .00000188  00000+0  49580-3 0  9990
2 45438  87.8806  71.0777 0001650  93.4444 266.6872 13.11415153269764
ONEWEB-0096             
1 45439U 20020R   25282.11676026  .00000054  00000+0  11589-3 0  9992
2 45439  87.8824  71.0507 0001439  95.5882 264.5410 13.11414869269757
ONEWEB-0037             
1 45440U 20020S   25282.17355022  .00000517  00000+0  14234-2 0  9993
2 45440  87.8825  71.0052 0001704  89.7354 270.3970 13.11418622269790
ONEWEB-0042             
1 45441U 20020T   25282.18274878  .00000435  00000+0  11912-2 0  9993
2 45441  87.8813  71.0402 0001596  89.2919 270.8391 13.11414911269764
ONEWEB-0098             
1 45442U 20020U   25282.17865118  .00000448  00000+0  12273-2 0  9991
2 45442  87.8819  71.0521 0001715  96.1491 263.9833 13.11414849269740
ONEWEB-0055             
1 45443U 20020V   25282.16168946  .00000236  00000+0  63112-3 0  9990
2 45443  87.8816  71.0572 0001658  93.6492 266.4826 13.11417837269710
ONEWEB-0093             
1 45444U 20020W   25282.13723722 -.00000494  00000+0 -14293-2 0  9990
2 45444  87.8817  71.0476 0001334  82.1195 278.0085 13.11415568269770
ONEWEB-0029             
1 45445U 20020X   25282.15320563 -.00000125  00000+0 -38776-3 0  9993
2 45445  87.8819  71.0568 0001489  93.5463 266.5835 13.11418462269759
ONEWEB-0068             
1 45446U 20020Y   25282.13696022 -.00000488  00000+0 -14117-2 0  9992
2 45446  87.8815  71.0487 0001432  93.3078 266.8214 13.11416173269698
ONEWEB-0046             
1 45447U 20020Z   25282.12862074 -.00000394  00000+0 -11470-2 0  9999
2 45447  87.8810  71.0592 0001585  84.9395 275.1914 13.11415271269708
ONEWEB-0063             
1 45448U 20020AA  25282.15745074  .00000049  00000+0  10330-3 0  9993
2 45448  87.8815  71.0517 0001773  87.6060 272.5271 13.11417526269790
ONEWEB-0019             
1 45449U 20020AB  25281.82597023 -.00000522  00000+0 -15089-2 0  9999
2 45449  87.8804  71.1326 0001604  97.2858 262.8452 13.11414265269591
ONEWEB-0094             
1 45450U 20020AC  25282.30982913  .00000011  00000+0 -48826-5 0  9991
2 45450  87.9097  55.7223 0001568  97.3592 262.7718 13.17652581273272
ONEWEB-0087             
1 45451U 20020AD  25282.16749099  .00000546  00000+0  15034-2 0  9996
2 45451  87.8827  71.0015 0001292  93.5478 266.5798 13.11417032269682
ONEWEB-0082             
1 45452U 20020AE  25282.16421010 -.00000247  00000+0 -73263-3 0  9996
2 45452  87.8822  71.0288 0001523  86.9031 273.2271 13.11436197269772
ONEWEB-0050             
1 45453U 20020AF  25281.46365377  .00022423  00000+0  23626-2 0  9997
2 45453  88.5716 267.9888 0005010 111.2400 248.9364 14.89242990302909
